NORAD_CAT_ID,OBJECT_NAME,OBJECT_TYPE,EPOCH,MEAN_MOTION,ECCENTRICITY,INCLINATION,RA_OF_ASC_NODE,ARG_OF_PERICENTER,MEAN_ANOMALY,BSTAR,MEAN_MOTION_DOT,MEAN_MOTION_DDOT,TLE_LINE0,TLE_LINE1,TLE_LINE2,SEMIMAJOR_AXIS,PERIOD,APOGEE,PERIGEE,DECAYED
53292.0,STARLINK-4159,PAYLOAD,2023-12-12 00:07:43,15.0883839,0.0001482,53.2176,259.5195,79.477,280.6389,-4.8336e-06,-3.65e-06,0.0,0 STARLINK-4159,1 53292U 22086BC  23346.00536498 -.00000365  00000-0 -48336-5 0  9997,2 53292  53.2176 259.5195 0001482  79.4770 280.6389 15.08838390 77434,6917.885,95.438,540.776,538.725,0.0
53292.0,STARLINK-4159,PAYLOAD,2023-12-12 22:23:07,15.08839832,0.0001409,53.2175,255.3579,77.0549,283.0601,0.0001195,1.614e-05,0.0,0 STARLINK-4159,1 53292U 22086BC  23346.93272935  .00001614  00000-0  11950-3 0  9998,2 53292  53.2175 255.3579 0001409  77.0549 283.0601 15.08839832 77739,6917.881,95.438,540.721,538.771,0.0
53292.0,STARLINK-4159,PAYLOAD,2023-12-13 01:33:53,15.0884328,0.0001427,53.2173,254.7629,82.4732,277.6422,0.00014402,2.005e-05,0.0,0 STARLINK-4159,1 53292U 22086BC  23347.06520664  .00002005  00000-0  14402-3 0  9998,2 53292  53.2173 254.7629 0001427  82.4732 277.6422 15.08843280 77596,6917.87,95.437,540.723,538.748,0.0
53292.0,STARLINK-4159,PAYLOAD,2023-12-13 22:13:54,15.08841313,0.0001426,53.217,250.8976,83.1707,276.9447,0.00013458,1.855e-05,0.0,0 STARLINK-4159,1 53292U 22086BC  23347.92632789  .00001855  00000-0  13458-3 0  9997,2 53292  53.2170 250.8976 0001426  83.1707 276.9447 15.08841313 77880,6917.876,95.437,540.728,538.755,0.0
53292.0,STARLINK-4159,PAYLOAD,2023-12-14 01:24:40,15.08844018,0.0001486,53.2164,250.3026,82.7465,277.3696,0.00017121,2.438e-05,0.0,0 STARLINK-4159,1 53292U 22086BC  23348.05880628  .00002438  00000-0  17121-3 0  9998,2 53292  53.2164 250.3026 0001486  82.7465 277.3696 15.08844018 77905,6917.868,95.437,540.761,538.705,0.0
53292.0,STARLINK-4159,PAYLOAD,2023-12-14 22:04:41,15.0884479,0.0001498,53.216,246.4377,82.1664,277.9498,9.6281e-05,1.245e-05,0.0,0 STARLINK-4159,1 53292U 22086BC  23348.91992556  .00001245  00000-0  96281-4 0  9997,2 53292  53.2160 246.4377 0001498  82.1664 277.9498 15.08844790 78032,6917.866,95.437,540.767,538.694,0.0
53292.0,STARLINK-4159,PAYLOAD,2023-12-14 23:40:04,15.08846752,0.0001523,53.2155,246.1413,80.9983,279.1182,0.00014533,2.026e-05,0.0,0 STARLINK-4159,1 53292U 22086BC  23348.98616471  .00002026  00000-0  14533-3 0  9990,2 53292  53.2155 246.1413 0001523  80.9983 279.1182 15.08846752 77889,6917.86,95.437,540.778,538.671,0.0
53292.0,STARLINK-4159,PAYLOAD,2023-12-15 20:20:06,15.0883476,0.0001407,53.2159,242.2739,100.2773,259.8377,-1.836e-05,-5.8e-06,0.0,0 STARLINK-4159,1 53292U 22086BC  23349.84729211 -.00000580  00000-0 -18360-4 0  9991,2 53292  53.2159 242.2739 0001407 100.2773 259.8377 15.08834760 78018,6917.896,95.438,540.735,538.788,0.0
53292.0,STARLINK-4159,PAYLOAD,2023-12-15 21:55:29,15.08834615,0.0001327,53.2161,241.9761,92.0449,268.0695,-1.8911e-05,-5.89e-06,0.0,0 STARLINK-4159,1 53292U 22086BC  23349.91353257 -.00000589  00000-0 -18911-4 0  9993,2 53292  53.2161 241.9761 0001327  92.0449 268.0695 15.08834615 78183,6917.897,95.438,540.68,538.844,0.0
53292.0,STARLINK-4159,PAYLOAD,2023-12-15 23:30:52,15.08834801,0.0001335,53.2156,241.6793,94.6574,265.4571,-9.6066e-06,-4.41e-06,0.0,0 STARLINK-4159,1 53292U 22086BC  23349.97977255 -.00000441  00000-0 -96066-5 0  9994,2 53292  53.2156 241.6793 0001335  94.6574 265.4571 15.08834801 78197,6917.896,95.438,540.685,538.838,0.0
53292.0,STARLINK-4159,PAYLOAD,2023-12-16 21:46:16,15.08840822,0.0001175,53.2154,237.5163,105.9879,254.1242,0.00022656,3.32e-05,0.0,0 STARLINK-4159,1 53292U 22086BC  23350.90713080  .00003320  00000-0  22656-3 0  9992,2 53292  53.2154 237.5163 0001175 105.9879 254.1242 15.08840822 78332,6917.878,95.438,540.556,538.93,0.0
53292.0,STARLINK-4159,PAYLOAD,2023-12-16 23:21:38,15.08846457,0.0001238,53.2156,237.2179,109.2,250.9126,0.00021431,3.125e-05,0.0,0 STARLINK-4159,1 53292U 22086BC  23350.97336791  .00003125  00000-0  21431-3 0  9992,2 53292  53.2156 237.2179 0001238 109.2000 250.9126 15.08846457 78189,6917.861,95.437,540.582,538.869,0.0
53292.0,STARLINK-4159,PAYLOAD,2023-12-17 20:01:39,15.08844454,0.0001305,53.2155,233.3522,94.8973,265.2168,0.0002029,2.943e-05,0.0,0 STARLINK-4159,1 53292U 22086BC  23351.83448953  .00002943  00000-0  20290-3 0  9991,2 53292  53.2155 233.3522 0001305  94.8973 265.2168 15.08844454 78315,6917.867,95.437,540.635,538.829,0.0
53292.0,STARLINK-4159,PAYLOAD,2023-12-17 21:37:03,15.08843255,0.0001401,53.2169,233.0537,91.9748,268.1405,0.00039192,5.956e-05,0.0,0 STARLINK-4159,1 53292U 22086BC  23351.90073081  .00005956  00000-0  39192-3 0  9993,2 53292  53.2169 233.0537 0001401  91.9748 268.1405 15.08843255 78480,6917.87,95.437,540.705,538.766,0.0
53292.0,STARLINK-4159,PAYLOAD,2023-12-17 23:12:25,15.08852177,0.0001515,53.2163,232.7559,102.4728,257.6433,0.00030155,4.516e-05,0.0,0 STARLINK-4159,1 53292U 22086BC  23351.96696604  .00004516  00000-0  30155-3 0  9992,2 53292  53.2163 232.7559 0001515 102.4728 257.6433 15.08852177 78337,6917.843,95.437,540.756,538.66,0.0
53292.0,STARLINK-4159,PAYLOAD,2023-12-18 19:52:26,15.0883998,0.0001593,53.2168,228.8936,106.3647,253.7521,-3.313e-06,-3.41e-06,0.0,0 STARLINK-4159,1 53292U 22086BC  23352.82808985 -.00000341  00000-0 -33130-5 0  9997,2 53292  53.2168 228.8936 0001593 106.3647 253.7521 15.08839980 78462,6917.88,95.438,540.847,538.643,0.0
53292.0,STARLINK-4159,PAYLOAD,2023-12-18 21:27:50,15.0883969,0.0001534,53.2163,228.5944,102.7722,257.3442,-3.6603e-06,-3.46e-06,0.0,0 STARLINK-4159,1 53292U 22086BC  23352.89432996 -.00000346  00000-0 -36603-5 0  9992,2 53292  53.2163 228.5944 0001534 102.7722 257.3442 15.08839690 78631,6917.881,95.438,540.808,538.685,0.0
53292.0,STARLINK-4159,PAYLOAD,2023-12-19 22:53:59,15.08869032,0.0001388,53.2154,223.8354,96.1974,263.9176,0.0006481,0.0001005,0.0,0 STARLINK-4159,1 53292U 22086BC  23353.95416220  .00010050  00000-0  64810-3 0  9992,2 53292  53.2154 223.8354 0001388  96.1974 263.9176 15.08869032 78636,6917.792,95.436,540.617,538.696,0.0
53292.0,STARLINK-4159,PAYLOAD,2023-12-20 19:34:01,15.08840787,0.0001439,53.2153,219.9701,90.0388,270.0769,0.00011465,1.537e-05,0.0,0 STARLINK-4159,1 53292U 22086BC  23354.81529154  .00001537  00000-0  11465-3 0  9997,2 53292  53.2153 219.9701 0001439  90.0388 270.0769 15.08840787 78763,6917.878,95.438,540.738,538.748,0.0
53292.0,STARLINK-4159,PAYLOAD,2023-12-20 21:09:24,15.08841041,0.000136,53.215,219.6715,98.5006,261.614,0.00010351,1.36e-05,0.0,0 STARLINK-4159,1 53292U 22086BC  23354.88153066  .00001360  00000-0  10351-3 0  9996,2 53292  53.2150 219.6715 0001360  98.5006 261.6140 15.08841041 78937,6917.877,95.437,540.683,538.801,0.0
53292.0,STARLINK-4159,PAYLOAD,2023-12-20 22:44:47,15.08839971,0.0001368,53.2148,219.3763,104.8677,255.2466,6.3184e-05,7.18e-06,0.0,0 STARLINK-4159,1 53292U 22086BC  23354.94777057  .00000718  00000-0  63184-4 0  9994,2 53292  53.2148 219.3763 0001368 104.8677 255.2466 15.08839971 78947,6917.88,95.438,540.692,538.799,0.0
53292.0,STARLINK-4159,PAYLOAD,2023-12-21 22:35:34,15.0884513,0.0001502,53.2153,214.9193,97.0078,263.1085,-0.00018131,-3.173e-05,0.0,0 STARLINK-4159,1 53292U 22086BC  23355.94137327 -.00003173  00000-0 -18131-3 0  9996,2 53292  53.2153 214.9193 0001502  97.0078 263.1085 15.08845130 79095,6917.865,95.437,540.769,538.691,0.0
53292.0,STARLINK-4159,PAYLOAD,2023-12-22 19:15:35,15.08838812,0.0001579,53.2155,211.0549,88.9478,271.1695,0.00018182,2.607e-05,0.0,0 STARLINK-4159,1 53292U 22086BC  23356.80249986  .00002607  00000-0  18182-3 0  9992,2 53292  53.2155 211.0549 0001579  88.9478 271.1695 15.08838812 79069,6917.884,95.438,540.841,538.657,0.0
53292.0,STARLINK-4159,PAYLOAD,2023-12-22 20:50:59,15.08839702,0.0001609,53.2155,210.7565,87.0085,273.1091,0.00019025,2.741e-05,0.0,0 STARLINK-4159,1 53292U 22086BC  23356.86873944  .00002741  00000-0  19025-3 0  9991,2 53292  53.2155 210.7565 0001609  87.0085 273.1091 15.08839702 79231,6917.881,95.438,540.859,538.633,0.0
53292.0,STARLINK-4159,PAYLOAD,2023-12-23 20:41:46,15.08840749,0.0001535,53.2153,206.2912,95.7282,264.3885,0.00011607,1.56e-05,0.0,0 STARLINK-4159,1 53292U 22086BC  23357.86234004  .00001560  00000-0  11607-3 0  9996,2 53292  53.2153 206.2912 0001535  95.7282 264.3885 15.08840749 79380,6917.878,95.438,540.805,538.681,0.0
53292.0,STARLINK-4159,PAYLOAD,2023-12-24 14:11:00,15.08840826,0.0001596,53.2161,203.0195,106.3901,253.7267,9.133e-05,1.166e-05,0.0,0 STARLINK-4159,1 53292U 22086BC  23358.59097863  .00001166  00000-0  91330-4 0  9991,2 53292  53.2161 203.0195 0001596 106.3901 253.7267 15.08840826 79495,6917.878,95.438,540.847,538.639,0.0
53292.0,STARLINK-4159,PAYLOAD,2023-12-24 20:32:32,15.08843578,0.0001638,53.2166,201.8348,109.5568,250.5601,0.00010075,1.316e-05,0.0,0 STARLINK-4159,1 53292U 22086BC  23358.85593636  .00001316  00000-0  10075-3 0  9992,2 53292  53.2166 201.8348 0001638 109.5568 250.5601 15.08843578 79536,6917.869,95.437,540.868,538.601,0.0
53292.0,STARLINK-4159,PAYLOAD,2023-12-25 18:47:57,15.08839463,0.0001652,53.2171,197.6735,110.8353,249.2816,6.533e-05,7.52e-06,0.0,0 STARLINK-4159,1 53292U 22086BC  23359.78329977  .00000752  00000-0  65330-4 0  9998,2 53292  53.2171 197.6735 0001652 110.8353 249.2816 15.08839463 79516,6917.882,95.438,540.89,538.604,0.0
53292.0,STARLINK-4159,PAYLOAD,2023-12-26 13:52:34,15.08839025,0.0001495,53.2167,194.1031,100.5691,259.5469,2.8863e-05,1.71e-06,0.0,0 STARLINK-4159,1 53292U 22086BC  23360.57818227  .00000171  00000-0  28863-4 0  9993,2 53292  53.2167 194.1031 0001495 100.5691 259.5469 15.08839025 79790,6917.883,95.438,540.783,538.714,0.0
53292.0,STARLINK-4159,PAYLOAD,2023-12-26 18:38:44,15.08838468,0.0001362,53.2158,193.2074,96.6747,263.44,-2.9813e-06,-3.35e-06,0.0,0 STARLINK-4159,1 53292U 22086BC  23360.77690278 -.00000335  00000-0 -29813-5 0  9990,2 53292  53.2158 193.2074 0001362  96.6747 263.4400 15.08838468 79820,6917.885,95.438,540.692,538.808,0.0
